NORAD_CAT_ID,OBJECT_NAME,OBJECT_TYPE,EPOCH,MEAN_MOTION,ECCENTRICITY,INCLINATION,RA_OF_ASC_NODE,ARG_OF_PERICENTER,MEAN_ANOMALY,BSTAR,MEAN_MOTION_DOT,MEAN_MOTION_DDOT,TLE_LINE0,TLE_LINE1,TLE_LINE2,SEMIMAJOR_AXIS,PERIOD,APOGEE,PERIGEE,DECAYED
55916.0,STARLINK-5796,PAYLOAD,2024-05-26 10:36:32,14.98362559,0.0003122,69.9983,149.1329,270.3812,89.6989,-0.00042112,-5.118e-05,0.0,0 STARLINK-5796,1 55916U 23037C   24147.44204815 -.00005118  00000-0 -42112-3 0  9997,2 55916  69.9983 149.1329 0003122 270.3812  89.6989 14.98362559 66128,6950.092,96.105,574.127,569.787,0.0
55916.0,STARLINK-5796,PAYLOAD,2024-05-26 17:01:05,14.98327129,0.0002761,69.9989,148.4602,253.5233,106.5622,0.00023607,2.725e-05,0.0,0 STARLINK-5796,1 55916U 23037C   24147.70909715  .00002725  00000-0  23607-3 0  9994,2 55916  69.9989 148.4602 0002761 253.5233 106.5622 14.98327129 66169,6950.202,96.107,573.986,570.148,0.0
55916.0,STARLINK-5796,PAYLOAD,2024-05-26 23:25:37,14.98337814,0.0002698,69.9989,147.7869,263.7221,96.3631,0.00012452,1.393e-05,0.0,0 STARLINK-5796,1 55916U 23037C   24147.97613246  .00001393  00000-0  12452-3 0  9990,2 55916  69.9989 147.7869 0002698 263.7221  96.3631 14.98337814 65869,6950.169,96.106,573.909,570.159,0.0
55916.0,STARLINK-5796,PAYLOAD,2024-05-27 09:02:26,14.98334139,0.0002847,69.9988,146.777,262.3498,97.7337,7.1179e-05,7.56e-06,0.0,0 STARLINK-5796,1 55916U 23037C   24148.37669455  .00000756  00000-0  71179-4 0  9992,2 55916  69.9988 146.7770 0002847 262.3498  97.7337 14.98334139 65927,6950.18,96.107,574.024,570.066,0.0
55916.0,STARLINK-5796,PAYLOAD,2024-05-27 17:03:06,14.9833595,0.0003017,69.9983,145.935,269.075,91.0064,5.7072e-05,5.88e-06,0.0,0 STARLINK-5796,1 55916U 23037C   24148.71049211  .00000588  00000-0  57072-4 0  9991,2 55916  69.9983 145.9350 0003017 269.0750  91.0064 14.98335950 66312,6950.174,96.107,574.136,569.943,0.0
55916.0,STARLINK-5796,PAYLOAD,2024-05-28 05:52:11,14.98331498,0.0002934,69.9985,144.5886,265.4888,94.5936,-1.6145e-05,-2.86e-06,0.0,0 STARLINK-5796,1 55916U 23037C   24149.24457604 -.00000286  00000-0 -16145-4 0  9992,2 55916  69.9985 144.5886 0002934 265.4888  94.5936 14.98331498 66399,6950.188,96.107,574.092,570.014,0.0
55916.0,STARLINK-5796,PAYLOAD,2024-05-28 09:04:27,14.98330278,0.0002966,69.9985,144.252,266.5068,93.5752,-3.2332e-05,-4.79e-06,0.0,0 STARLINK-5796,1 55916U 23037C   24149.37809716 -.00000479  00000-0 -32332-4 0  9991,2 55916  69.9985 144.2520 0002966 266.5068  93.5752 14.98330278 66073,6950.192,96.107,574.118,569.996,0.0
55916.0,STARLINK-5796,PAYLOAD,2024-05-29 09:06:28,14.98333508,0.0003085,69.9983,141.7266,269.3119,90.7687,-9.985e-06,-2.12e-06,0.0,0 STARLINK-5796,1 55916U 23037C   24150.37949255 -.00000212  00000-0 -99850-5 0  9990,2 55916  69.9983 141.7266 0003085 269.3119  90.7687 14.98333508 66560,6950.182,96.107,574.191,569.903,0.0
55916.0,STARLINK-5796,PAYLOAD,2024-05-30 09:08:28,14.98332394,0.0003124,69.9983,139.2021,268.9653,91.1148,6.6116e-05,6.96e-06,0.0,0 STARLINK-5796,1 55916U 23037C   24151.38089056  .00000696  00000-0  66116-4 0  9998,2 55916  69.9983 139.2021 0003124 268.9653  91.1148 14.98332394 66719,6950.185,96.107,574.222,569.879,0.0
55916.0,STARLINK-5796,PAYLOAD,2024-05-31 09:10:29,14.9833187,0.0003016,69.9986,136.6775,267.8974,92.184,3.2042e-05,2.89e-06,0.0,0 STARLINK-5796,1 55916U 23037C   24152.38229120  .00000289  00000-0  32042-4 0  9996,2 55916  69.9986 136.6775 0003016 267.8974  92.1840 14.98331870 66867,6950.187,96.107,574.148,569.956,0.0
55916.0,STARLINK-5796,PAYLOAD,2024-06-01 09:12:30,14.98331781,0.0002941,69.9988,134.1524,267.8282,92.2541,2.1085e-05,1.59e-06,0.0,0 STARLINK-5796,1 55916U 23037C   24153.38369057  .00000159  00000-0  21085-4 0  9992,2 55916  69.9988 134.1524 0002941 267.8282  92.2541 14.98331781 67010,6950.187,96.107,574.096,570.008,0.0
55916.0,STARLINK-5796,PAYLOAD,2024-06-02 09:14:31,14.98333622,0.0002935,69.9988,131.6273,268.6115,91.4707,5.7279e-05,5.91e-06,0.0,0 STARLINK-5796,1 55916U 23037C   24154.38508725  .00000591  00000-0  57279-4 0  9994,2 55916  69.9988 131.6273 0002935 268.6115  91.4707 14.98333622 67167,6950.182,96.107,574.087,570.007,0.0
55916.0,STARLINK-5796,PAYLOAD,2024-06-02 15:39:04,14.98327207,0.0002911,69.9989,130.9539,269.0078,91.0748,-6.3811e-06,-1.69e-06,0.0,0 STARLINK-5796,1 55916U 23037C   24154.65213308 -.00000169  00000-0 -63811-5 0  9997,2 55916  69.9989 130.9539 0002911 269.0078  91.0748 14.98327207 67200,6950.202,96.107,574.09,570.043,0.0
55916.0,STARLINK-5796,PAYLOAD,2024-06-03 04:28:10,14.9831462,0.0002919,69.9991,129.6075,269.5489,90.5336,-0.00013972,-1.759e-05,0.0,0 STARLINK-5796,1 55916U 23037C   24155.18622772 -.00001759  00000-0 -13972-3 0  9992,2 55916  69.9991 129.6075 0002919 269.5489  90.5336 14.98314620 67282,6950.24,96.108,574.134,570.077,0.0
55916.0,STARLINK-5796,PAYLOAD,2024-06-03 07:40:26,14.98310403,0.0002898,69.9991,129.2708,268.6859,91.3968,-0.0001786,-2.222e-05,0.0,0 STARLINK-5796,1 55916U 23037C   24155.31975264 -.00002222  00000-0 -17860-3 0  9990,2 55916  69.9991 129.2708 0002898 268.6859  91.3968 14.98310403 66967,6950.253,96.108,574.133,570.104,0.0
55916.0,STARLINK-5796,PAYLOAD,2024-06-03 15:41:06,14.98319015,0.0003088,69.999,128.4283,270.4913,89.5892,-9.122e-05,-1.181e-05,0.0,0 STARLINK-5796,1 55916U 23037C   24155.65354764 -.00001181  00000-0 -91220-4 0  9999,2 55916  69.9990 128.4283 0003088 270.4913  89.5892 14.98319015 67019,6950.227,96.108,574.238,569.946,0.0
55916.0,STARLINK-5796,PAYLOAD,2024-06-04 04:30:10,14.98325124,0.0003193,69.9986,127.0817,269.2229,90.8564,-2.5904e-05,-4.02e-06,0.0,0 STARLINK-5796,1 55916U 23037C   24156.18762508 -.00000402  00000-0 -25904-4 0  9998,2 55916  69.9986 127.0817 0003193 269.2229  90.8564 14.98325124 67430,6950.208,96.107,574.292,569.854,0.0
55916.0,STARLINK-5796,PAYLOAD,2024-06-04 07:42:26,14.9833055,0.0003053,69.999,126.7455,269.3613,90.7196,4.5747e-05,4.53e-06,0.0,0 STARLINK-5796,1 55916U 23037C   24156.32114044  .00000453  00000-0  45747-4 0  9991,2 55916  69.9990 126.7455 0003053 269.3613  90.7196 14.98330550 67116,6950.191,96.107,574.178,569.934,0.0
55916.0,STARLINK-5796,PAYLOAD,2024-06-04 15:43:06,14.98335005,0.0003055,69.9991,125.9044,270.3054,89.7755,7.7014e-05,8.26e-06,0.0,0 STARLINK-5796,1 55916U 23037C   24156.65493727  .00000826  00000-0  77014-4 0  9991,2 55916  69.9991 125.9044 0003055 270.3054  89.7755 14.98335005 67507,6950.177,96.107,574.166,569.919,0.0
55916.0,STARLINK-5796,PAYLOAD,2024-06-04 22:07:38,14.98328841,0.0003172,69.9991,125.2305,270.1723,89.9072,0.0002566,2.97e-05,0.0,0 STARLINK-5796,1 55916U 23037C   24156.92197645  .00002970  00000-0  25660-3 0  9992,2 55916  69.9991 125.2305 0003172 270.1723  89.9072 14.98328841 67202,6950.196,96.107,574.266,569.857,0.0
55916.0,STARLINK-5796,PAYLOAD,2024-06-05 06:08:18,14.9833451,0.0003115,69.9988,124.3893,270.8007,89.2795,0.00037141,4.342e-05,0.0,0 STARLINK-5796,1 55916U 23037C   24157.25577132  .00004342  00000-0  37141-3 0  9994,2 55916  69.9988 124.3893 0003115 270.8007  89.2795 14.98334510 67259,6950.179,96.107,574.209,569.879,0.0
55916.0,STARLINK-5796,PAYLOAD,2024-06-05 15:45:07,14.9833497,0.0003039,69.999,123.3791,270.7522,89.3289,0.00027282,3.164e-05,0.0,0 STARLINK-5796,1 55916U 23037C   24157.65633401  .00003164  00000-0  27282-3 0  9996,2 55916  69.9990 123.3791 0003039 270.7522  89.3289 14.98334970 67657,6950.178,96.107,574.155,569.93,0.0
55916.0,STARLINK-5796,PAYLOAD,2024-06-06 07:46:27,14.98344533,0.0002933,69.9992,121.6959,270.1913,89.8909,0.00019166,2.195e-05,0.0,0 STARLINK-5796,1 55916U 23037C   24158.32392793  .00002195  00000-0  19166-3 0  9992,2 55916  69.9992 121.6959 0002933 270.1913  89.8909 14.98344533 67410,6950.148,96.106,574.051,569.974,0.0
55916.0,STARLINK-5796,PAYLOAD,2024-06-06 20:35:32,14.98339686,0.0002729,70.0,120.3497,271.9853,88.0993,-2.5873e-05,-4.02e-06,0.0,0 STARLINK-5796,1 55916U 23037C   24158.85801290 -.00000402  00000-0 -25873-4 0  9991,2 55916  70.0000 120.3497 0002729 271.9853  88.0993 14.98339686 67834,6950.163,96.106,573.925,570.131,0.0
55916.0,STARLINK-5796,PAYLOAD,2024-06-07 14:13:00,14.98341817,0.0002868,69.9995,118.4969,273.2502,86.8329,-3.6997e-05,-5.35e-06,0.0,0 STARLINK-5796,1 55916U 23037C   24159.59236685 -.00000535  00000-0 -36997-4 0  9999,2 55916  69.9995 118.4969 0002868 273.2502  86.8329 14.98341817 67609,6950.156,96.106,574.015,570.028,0.0
55916.0,STARLINK-5796,PAYLOAD,2024-06-07 20:37:32,14.98337643,0.0002732,69.9995,117.8249,270.0754,90.0092,1.9109e-05,1.35e-06,0.0,0 STARLINK-5796,1 55916U 23037C   24159.85940755  .00000135  00000-0  19109-4 0  9998,2 55916  69.9995 117.8249 0002732 270.0754  90.0092 14.98337643 67984,6950.169,96.107,573.933,570.135,0.0
55916.0,STARLINK-5796,PAYLOAD,2024-06-07 22:13:40,14.98337838,0.0002749,69.9995,117.6565,269.6981,90.3863,2.1875e-05,1.68e-06,0.0,0 STARLINK-5796,1 55916U 23037C   24159.92616697  .00000168  00000-0  21875-4 0  9990,2 55916  69.9995 117.6565 0002749 269.6981  90.3863 14.98337838 67656,6950.169,96.106,573.944,570.123,0.0
55916.0,STARLINK-5796,PAYLOAD,2024-06-08 14:15:00,14.98382702,0.0001962,70.0023,115.971,292.4087,67.6864,-0.0011192,-0.00013439,0.0,0 STARLINK-5796,1 55916U 23037C   24160.59375485 -.00013439  00000-0 -11192-2 0  9998,2 55916  70.0023 115.9710 0001962 292.4087  67.6864 14.98382702 67750,6950.03,96.104,573.259,570.531,0.0
55916.0,STARLINK-5796,PAYLOAD,2024-06-08 22:15:42,14.98325719,0.000253,70.0005,115.1291,263.8204,96.2666,3.5091e-05,3.26e-06,0.0,0 STARLINK-5796,1 55916U 23037C   24160.92757208  .00000326  00000-0  35091-4 0  9997,2 55916  70.0005 115.1291 0002530 263.8204  96.2666 14.98325719 67800,6950.206,96.107,573.83,570.313,0.0
55916.0,STARLINK-5796,PAYLOAD,2024-06-09 04:40:14,14.9832453,0.0002799,69.9995,114.4589,267.9751,92.1088,-9.1455e-06,-2.02e-06,0.0,0 STARLINK-5796,1 55916U 23037C   24161.19461485 -.00000202  00000-0 -91455-5 0  9998,2 55916  69.9995 114.4589 0002799 267.9751  92.1088 14.98324530 68181,6950.21,96.107,574.02,570.129,0.0
